NORAD_CAT_ID,OBJECT_NAME,OBJECT_TYPE,EPOCH,MEAN_MOTION,ECCENTRICITY,INCLINATION,RA_OF_ASC_NODE,ARG_OF_PERICENTER,MEAN_ANOMALY,BSTAR,MEAN_MOTION_DOT,MEAN_MOTION_DDOT,TLE_LINE0,TLE_LINE1,TLE_LINE2,SEMIMAJOR_AXIS,PERIOD,APOGEE,PERIGEE,DECAYED
52337.0,STARLINK-3797,PAYLOAD,2023-09-11 15:28:56,15.0884408,0.00016,53.2191,334.4717,89.0388,271.0787,7.2894e-05,8.72e-06,0.0,0 STARLINK-3797,1 52337U 22045G   23254.64509839  .00000872  00000-0  72894-4 0  9994,2 52337  53.2191 334.4717 0001600  89.0388 271.0787 15.08844080 78257,6917.868,95.437,540.84,538.626,0.0
52337.0,STARLINK-3797,PAYLOAD,2023-09-12 12:08:57,15.08848524,0.0001507,53.2182,330.6044,93.8405,266.2759,0.00011612,1.561e-05,0.0,0 STARLINK-3797,1 52337U 22045G   23255.50621553  .00001561  00000-0  11612-3 0  9994,2 52337  53.2182 330.6044 0001507  93.8405 266.2759 15.08848524 78383,6917.854,95.437,540.762,538.677,0.0
52337.0,STARLINK-3797,PAYLOAD,2023-09-12 15:19:43,15.08849814,0.0001534,53.2174,330.0103,86.4478,273.669,0.00019799,2.865e-05,0.0,0 STARLINK-3797,1 52337U 22045G   23255.63869535  .00002865  00000-0  19799-3 0  9994,2 52337  53.2174 330.0103 0001534  86.4478 273.6690 15.08849814 78404,6917.85,95.437,540.777,538.654,0.0
52337.0,STARLINK-3797,PAYLOAD,2023-09-12 21:41:15,15.08844696,0.0001434,53.2169,328.8198,91.7513,268.3644,7.6681e-05,9.33e-06,0.0,0 STARLINK-3797,1 52337U 22045G   23255.90365626  .00000933  00000-0  76681-4 0  9994,2 52337  53.2169 328.8198 0001434  91.7513 268.3644 15.08844696 78442,6917.866,95.437,540.723,538.739,0.0
52337.0,STARLINK-3797,PAYLOAD,2023-09-13 10:24:20,15.08848971,0.0001523,53.2184,326.4438,90.4298,269.6869,0.00016835,2.393e-05,0.0,0 STARLINK-3797,1 52337U 22045G   23256.43357440  .00002393  00000-0  16835-3 0  9994,2 52337  53.2184 326.4438 0001523  90.4298 269.6869 15.08848971 78527,6917.853,95.437,540.772,538.664,0.0
52337.0,STARLINK-3797,PAYLOAD,2023-09-13 21:32:02,15.08844421,0.0001454,53.2181,324.3621,81.9326,278.1831,3.1932e-05,2.2e-06,0.0,0 STARLINK-3797,1 52337U 22045G   23256.89725519  .00000220  00000-0  31932-4 0  9993,2 52337  53.2181 324.3621 0001454  81.9326 278.1831 15.08844421 78592,6917.867,95.437,540.738,538.726,0.0
52337.0,STARLINK-3797,PAYLOAD,2023-09-14 10:15:09,15.08815954,0.0001558,53.218,321.9818,83.0402,277.0767,-0.00035189,-5.88e-05,0.0,0 STARLINK-3797,1 52337U 22045G   23257.42719487 -.00005880  00000-0 -35189-3 0  9996,2 52337  53.2180 321.9818 0001558  83.0402 277.0767 15.08815954 78679,6917.954,95.439,540.897,538.741,0.0
52337.0,STARLINK-3797,PAYLOAD,2023-09-14 13:25:55,15.08814718,0.0001606,53.2177,321.3876,81.1243,278.9931,-0.00036645,-6.111e-05,0.0,0 STARLINK-3797,1 52337U 22045G   23257.55967354 -.00006111  00000-0 -36645-3 0  9994,2 52337  53.2177 321.3876 0001606  81.1243 278.9931 15.08814718 78691,6917.958,95.439,540.934,538.712,0.0
52337.0,STARLINK-3797,PAYLOAD,2023-09-14 15:01:19,15.08815114,0.0001589,53.2175,321.09,81.3189,278.7984,-0.00032617,-5.472e-05,0.0,0 STARLINK-3797,1 52337U 22045G   23257.62591454 -.00005472  00000-0 -32617-3 0  9990,2 52337  53.2175 321.0900 0001589  81.3189 278.7984 15.08815114 78704,6917.956,95.439,540.921,538.722,0.0
52337.0,STARLINK-3797,PAYLOAD,2023-09-15 03:44:24,15.08823977,0.0001473,53.2173,318.7114,76.9401,283.1755,0.00010303,1.351e-05,0.0,0 STARLINK-3797,1 52337U 22045G   23258.15584031  .00001351  00000-0  10303-3 0  9990,2 52337  53.2173 318.7114 0001473  76.9401 283.1755 15.08823977 78781,6917.929,95.439,540.813,538.775,0.0
52337.0,STARLINK-3797,PAYLOAD,2023-09-15 11:41:20,15.088364,0.0001515,53.2164,317.2248,70.2337,289.8818,0.0011067,0.00017367,0.0,0 STARLINK-3797,1 52337U 22045G   23258.48704589  .00017367  00000-0  11067-2 0  9999,2 52337  53.2164 317.2248 0001515  70.2337 289.8818 15.08836400 78839,6917.891,95.438,540.804,538.708,0.0
52337.0,STARLINK-3797,PAYLOAD,2023-09-16 13:07:29,15.08877,0.0001585,53.2159,312.4667,69.0557,291.0604,0.0010823,0.00016996,0.0,0 STARLINK-3797,1 52337U 22045G   23259.54687142  .00016996  00000-0  10823-2 0  9998,2 52337  53.2159 312.4667 0001585  69.0557 291.0604 15.08877000 78998,6917.767,95.435,540.729,538.536,0.0
52337.0,STARLINK-3797,PAYLOAD,2023-09-16 21:04:25,15.08863082,0.0001935,53.2158,310.9798,75.0051,285.1155,0.00041677,6.355e-05,0.0,0 STARLINK-3797,1 52337U 22045G   23259.87807142  .00006355  00000-0  41677-3 0  9998,2 52337  53.2158 310.9798 0001935  75.0051 285.1155 15.08863082 79047,6917.81,95.436,541.013,538.336,0.0
52337.0,STARLINK-3797,PAYLOAD,2023-09-17 09:47:30,15.08861319,0.0001551,53.2166,308.6006,90.1469,269.9701,0.00055019,8.484e-05,0.0,0 STARLINK-3797,1 52337U 22045G   23260.40798667  .00008484  00000-0  55019-3 0  9990,2 52337  53.2166 308.6006 0001551  90.1469 269.9701 15.08861319 79124,6917.815,95.436,540.753,538.607,0.0
52337.0,STARLINK-3797,PAYLOAD,2023-09-17 20:55:12,15.08853331,0.0001735,53.2157,306.5199,71.7943,288.3238,0.0006923,0.00010751,0.0,0 STARLINK-3797,1 52337U 22045G   23260.87166811  .00010751  00000-0  69230-3 0  9991,2 52337  53.2157 306.5199 0001735  71.7943 288.3238 15.08853331 79192,6917.84,95.437,540.905,538.504,0.0
52337.0,STARLINK-3797,PAYLOAD,2023-09-18 09:38:17,15.08848993,0.0001643,53.2169,304.1398,87.8979,272.2201,2.1481e-05,5.4e-07,0.0,0 STARLINK-3797,1 52337U 22045G   23261.40158579  .00000054  00000-0  21481-4 0  9995,2 52337  53.2169 304.1398 0001643  87.8979 272.2201 15.08848993 79274,6917.853,95.437,540.855,538.581,0.0
52337.0,STARLINK-3797,PAYLOAD,2023-09-20 01:22:55,15.08837628,0.0001676,53.2177,296.7046,98.0738,262.0444,7.7501e-05,9.46e-06,0.0,0 STARLINK-3797,1 52337U 22045G   23263.05758684  .00000946  00000-0  77501-4 0  9995,2 52337  53.2177 296.7046 0001676  98.0738 262.0444 15.08837628 79529,6917.888,95.438,540.912,538.593,0.0
52337.0,STARLINK-3797,PAYLOAD,2023-09-20 09:19:51,15.08831133,0.0001722,53.2176,295.2219,98.0947,262.024,-8.6794e-05,-1.669e-05,0.0,0 STARLINK-3797,1 52337U 22045G   23263.38879305 -.00001669  00000-0 -86794-4 0  9994,2 52337  53.2176 295.2219 0001722  98.0947 262.0240 15.08831133 79572,6917.907,95.438,540.964,538.581,0.0
52337.0,STARLINK-3797,PAYLOAD,2023-09-20 18:52:11,15.08830243,0.0001762,53.2188,293.4392,105.2636,254.8551,-2.4902e-05,-6.84e-06,0.0,0 STARLINK-3797,1 52337U 22045G   23263.78624019 -.00000684  00000-0 -24902-4 0  9997,2 52337  53.2188 293.4392 0001762 105.2636 254.8551 15.08830243 79639,6917.91,95.438,540.994,538.556,0.0
52337.0,STARLINK-3797,PAYLOAD,2023-09-21 07:35:16,15.08832179,0.0001493,53.2183,291.0591,94.4208,265.6955,-2.4017e-05,-6.7e-06,0.0,0 STARLINK-3797,1 52337U 22045G   23264.31616214 -.00000670  00000-0 -24017-4 0  9997,2 52337  53.2183 291.0591 0001493  94.4208 265.6955 15.08832179 79711,6917.904,95.438,540.802,538.736,0.0
52337.0,STARLINK-3797,PAYLOAD,2023-09-21 23:29:07,15.08833718,0.0001541,53.217,288.0836,100.4533,259.6633,0.0001921,2.77e-05,0.0,0 STARLINK-3797,1 52337U 22045G   23264.97855851  .00002770  00000-0  19210-3 0  9990,2 52337  53.2170 288.0836 0001541 100.4533 259.6633 15.08833718 79815,6917.9,95.438,540.831,538.699,0.0
52337.0,STARLINK-3797,PAYLOAD,2023-09-22 09:01:26,15.08842128,0.0001498,53.217,286.2987,98.6122,261.504,0.0002086,3.034e-05,0.0,0 STARLINK-3797,1 52337U 22045G   23265.37599627  .00003034  00000-0  20860-3 0  9998,2 52337  53.2170 286.2987 0001498  98.6122 261.5040 15.08842128 79870,6917.874,95.437,540.775,538.703,0.0
52337.0,STARLINK-3797,PAYLOAD,2023-09-22 18:33:44,15.08847,0.0001477,53.2165,284.5122,89.7641,270.3521,0.00018565,2.668e-05,0.0,0 STARLINK-3797,1 52337U 22045G   23265.77343428  .00002668  00000-0  18565-3 0  9999,2 52337  53.2165 284.5122 0001477  89.7641 270.3521 15.08847000 79933,6917.859,95.437,540.746,538.702,0.0
52337.0,STARLINK-3797,PAYLOAD,2023-09-23 10:27:36,15.08846233,0.0001392,53.2165,281.537,86.5444,273.5707,0.00017373,2.479e-05,0.0,0 STARLINK-3797,1 52337U 22045G   23266.43583456  .00002479  00000-0  17373-3 0  9996,2 52337  53.2165 281.5370 0001392  86.5444 273.5707 15.08846233 80038,6917.861,95.437,540.689,538.763,0.0
52337.0,STARLINK-3797,PAYLOAD,2023-09-24 00:46:04,15.08843815,0.0001511,53.216,278.863,91.0633,269.0532,6.0707e-05,6.78e-06,0.0,0 STARLINK-3797,1 52337U 22045G   23267.03199755  .00000678  00000-0  60707-4 0  9997,2 52337  53.2160 278.8630 0001511  91.0633 269.0532 15.08843815 80124,6917.869,95.437,540.779,538.688,0.0
52337.0,STARLINK-3797,PAYLOAD,2023-09-24 07:07:36,15.08846142,0.0001504,53.2165,277.6733,88.0308,272.0857,4.6632e-05,4.54e-06,0.0,0 STARLINK-3797,1 52337U 22045G   23267.29695596  .00000454  00000-0  46632-4 0  9992,2 52337  53.2165 277.6733 0001504  88.0308 272.0857 15.08846142 80161,6917.862,95.437,540.767,538.686,0.0
52337.0,STARLINK-3797,PAYLOAD,2023-09-25 06:58:24,15.08844016,0.0001509,53.2164,273.2138,89.7044,270.4122,5.4757e-05,5.84e-06,0.0,0 STARLINK-3797,1 52337U 22045G   23268.29055559  .00000584  00000-0  54757-4 0  9993,2 52337  53.2164 273.2138 0001509  89.7044 270.4122 15.08844016 80313,6917.868,95.437,540.777,538.689,0.0
52337.0,STARLINK-3797,PAYLOAD,2023-09-25 10:09:10,15.08846643,0.000151,53.217,272.6181,91.7261,268.3904,7.7585e-05,9.47e-06,0.0,0 STARLINK-3797,1 52337U 22045G   23268.42303301  .00000947  00000-0  77585-4 0  9996,2 52337  53.2170 272.6181 0001510  91.7261 268.3904 15.08846643 80331,6917.86,95.437,540.77,538.68,0.0
52337.0,STARLINK-3797,PAYLOAD,2023-09-26 06:49:10,15.08852188,0.0001494,53.2154,268.7522,88.4695,271.6469,0.00021609,3.154e-05,0.0,0 STARLINK-3797,1 52337U 22045G   23269.28414953  .00003154  00000-0  21609-3 0  9995,2 52337  53.2154 268.7522 0001494  88.4695 271.6469 15.08852188 80461,6917.843,95.437,540.742,538.675,0.0
52337.0,STARLINK-3797,PAYLOAD,2023-09-27 03:29:11,15.08837218,0.0001349,53.2148,264.8853,93.0019,267.1127,-4.0356e-05,-9.3e-06,0.0,0 STARLINK-3797,1 52337U 22045G   23270.14527632 -.00000930  00000-0 -40356-4 0  9993,2 52337  53.2148 264.8853 0001349  93.0019 267.1127 15.08837218 80591,6917.889,95.438,540.687,538.821,0.0
